[{"OBJECT_NAME":"ONEWEB-0171","OBJECT_ID":"2021-025AE","EPOCH":"2025-09-29T19:05:40.474176","MEAN_MOTION":13.13472115,"ECCENTRICITY":0.0001704,"INCLINATION":87.904,"RA_OF_ASC_NODE":11.9836,"ARG_OF_PERICENTER":102.7642,"MEAN_ANOMALY":257.3678,"EPHEMERIS_TYPE":0,"CLASSIFICATION_TYPE":"U","NORAD_CAT_ID":48070,"ELEMENT_SET_NO":999,"REV_AT_EPOCH":21943,"BSTAR":0.00048656,"MEAN_MOTION_DOT":1.9e-6,"MEAN_MOTION_DDOT":0},{"OBJECT_NAME":"ONEWEB-0172","OBJECT_ID":"2021-025AF","EPOCH":"2025-09-29T16:46:44.520096","MEAN_MOTION":13.13470242,"ECCENTRICITY":0.0001809,"INCLINATION":87.9053,"RA_OF_ASC_NODE":11.9726,"ARG_OF_PERICENTER":106.7477,"MEAN_ANOMALY":253.385,"EPHEMERIS_TYPE":0,"CLASSIFICATION_TYPE":"U","NORAD_CAT_ID":48071,"ELEMENT_SET_NO":999,"REV_AT_EPOCH":22031,"BSTAR":-0.00058295,"MEAN_MOTION_DOT":-2.0e-6,"MEAN_MOTION_DDOT":0},{"OBJECT_NAME":"ONEWEB-0174","OBJECT_ID":"2021-025AG","EPOCH":"2025-09-29T19:59:18.498336","MEAN_MOTION":13.13468446,"ECCENTRICITY":0.00019,"INCLINATION":87.9049,"RA_OF_ASC_NODE":11.9573,"ARG_OF_PERICENTER":96.9392,"MEAN_ANOMALY":263.1953,"EPHEMERIS_TYPE":0,"CLASSIFICATION_TYPE":"U","NORAD_CAT_ID":48072,"ELEMENT_SET_NO":999,"REV_AT_EPOCH":21965,"BSTAR":-0.00041672,"MEAN_MOTION_DOT":-1.39e-6,"MEAN_MOTION_DDOT":0},{"OBJECT_NAME":"ONEWEB-0175","OBJECT_ID":"2021-025AH","EPOCH":"2025-09-29T18:53:28.680000","MEAN_MOTION":13.13472565,"ECCENTRICITY":0.0001532,"INCLINATION":87.9049,"RA_OF_ASC_NODE":11.9313,"ARG_OF_PERICENTER":110.5433,"MEAN_ANOMALY":249.586,"EPHEMERIS_TYPE":0,"CLASSIFICATION_TYPE":"U","NORAD_CAT_ID":48073,"ELEMENT_SET_NO":999,"REV_AT_EPOCH":21930,"BSTAR":-0.00022572,"MEAN_MOTION_DOT":-7.0e-7,"MEAN_MOTION_DDOT":0},{"OBJECT_NAME":"ONEWEB-0177","OBJECT_ID":"2021-025AJ","EPOCH":"2025-09-29T19:10:33.784032","MEAN_MOTION":13.13469736,"ECCENTRICITY":0.000193,"INCLINATION":87.9054,"RA_OF_ASC_NODE":11.9469,"ARG_OF_PERICENTER":100.0816,"MEAN_ANOMALY":260.0531,"EPHEMERIS_TYPE":0,"CLASSIFICATION_TYPE":"U","NORAD_CAT_ID":48074,"ELEMENT_SET_NO":999,"REV_AT_EPOCH":21949,"BSTAR":0.00079198,"MEAN_MOTION_DOT":3.02e-6,"MEAN_MOTION_DDOT":0},{"OBJECT_NAME":"ONEWEB-0178","OBJECT_ID":"2021-025AK","EPOCH":"2025-09-29T19:37:34.171104","MEAN_MOTION":13.13468348,"ECCENTRICITY":0.0001748,"INCLINATION":87.9054,"RA_OF_ASC_NODE":11.989,"ARG_OF_PERICENTER":107.092,"MEAN_ANOMALY":253.0401,"EPHEMERIS_TYPE":0,"CLASSIFICATION_TYPE":"U","NORAD_CAT_ID":48075,"ELEMENT_SET_NO":999,"REV_AT_EPOCH":21954,"BSTAR":0.0011337,"MEAN_MOTION_DOT":4.27e-6,"MEAN_MOTION_DDOT":0},{"OBJECT_NAME":"ONEWEB-0108","OBJECT_ID":"2021-025AL","EPOCH":"2025-09-29T18:38:51.446976","MEAN_MOTION":13.13469914,"ECCENTRICITY":0.0001716,"INCLINATION":87.905,"RA_OF_ASC_NODE":11.943,"ARG_OF_PERICENTER":92.3345,"MEAN_ANOMALY":267.798,"EPHEMERIS_TYPE":0,"CLASSIFICATION_TYPE":"U","NORAD_CAT_ID":48076,"ELEMENT_SET_NO":999,"REV_AT_EPOCH":21946,"BSTAR":-0.0011741,"MEAN_MOTION_DOT":-4.16e-6,"MEAN_MOTION_DDOT":0},{"OBJECT_NAME":"ONEWEB-0169","OBJECT_ID":"2021-025AM","EPOCH":"2025-09-29T19:25:11.265024","MEAN_MOTION":13.13469436,"ECCENTRICITY":0.0001755,"INCLINATION":87.9051,"RA_OF_ASC_NODE":11.9589,"ARG_OF_PERICENTER":92.4969,"MEAN_ANOMALY":267.6361,"EPHEMERIS_TYPE":0,"CLASSIFICATION_TYPE":"U","NORAD_CAT_ID":48077,"ELEMENT_SET_NO":999,"REV_AT_EPOCH":21812,"BSTAR":0.00089315,"MEAN_MOTION_DOT":3.39e-6,"MEAN_MOTION_DDOT":0},{"OBJECT_NAME":"ONEWEB-0176","OBJECT_ID":"2021-031A","EPOCH":"2025-09-29T02:16:47.241408","MEAN_MOTION":13.1450239,"ECCENTRICITY":0.00017452,"INCLINATION":87.907,"RA_OF_ASC_NODE":341.6968,"ARG_OF_PERICENTER":101.7168,"MEAN_ANOMALY":258.4158,"EPHEMERIS_TYPE":0,"CLASSIFICATION_TYPE":"U","NORAD_CAT_ID":48210,"ELEMENT_SET_NO":999,"REV_AT_EPOCH":21401,"BSTAR":0.00049789377,"MEAN_MOTION_DOT":1.97e-6,"MEAN_MOTION_DDOT":0},{"OBJECT_NAME":"ONEWEB-0184","OBJECT_ID":"2021-031B","EPOCH":"2025-09-29T18:04:26.995872","MEAN_MOTION":13.14503135,"ECCENTRICITY":0.0001694,"INCLINATION":87.9077,"RA_OF_ASC_NODE":341.54,"ARG_OF_PERICENTER":126.7851,"MEAN_ANOMALY":233.3434,"EPHEMERIS_TYPE":0,"CLASSIFICATION_TYPE":"U","NORAD_CAT_ID":48211,"ELEMENT_SET_NO":999,"REV_AT_EPOCH":21407,"BSTAR":-0.00018719,"MEAN_MOTION_DOT":-5.7e-7,"MEAN_MOTION_DDOT":0},{"OBJECT_NAME":"ONEWEB-0179","OBJECT_ID":"2021-031C","EPOCH":"2025-09-29T17:22:10.951104","MEAN_MOTION":13.14505176,"ECCENTRICITY":0.0001892,"INCLINATION":87.9064,"RA_OF_ASC_NODE":341.5603,"ARG_OF_PERICENTER":95.9931,"MEAN_ANOMALY":264.1414,"EPHEMERIS_TYPE":0,"CLASSIFICATION_TYPE":"U","NORAD_CAT_ID":48212,"ELEMENT_SET_NO":999,"REV_AT_EPOCH":21411,"BSTAR":0.00078496,"MEAN_MOTION_DOT":3.04e-6,"MEAN_MOTION_DDOT":0},{"OBJECT_NAME":"ONEWEB-0180","OBJECT_ID":"2021-031D","EPOCH":"2025-09-29T16:19:23.308032","MEAN_MOTION":13.14501124,"ECCENTRICITY":0.0002066,"INCLINATION":87.9077,"RA_OF_ASC_NODE":341.5603,"ARG_OF_PERICENTER":103.0674,"MEAN_ANOMALY":257.0686,"EPHEMERIS_TYPE":0,"CLASSIFICATION_TYPE":"U","NORAD_CAT_ID":48213,"ELEMENT_SET_NO":999,"REV_AT_EPOCH":21399,"BSTAR":-0.00051348,"MEAN_MOTION_DOT":-1.78e-6,"MEAN_MOTION_DDOT":0},{"OBJECT_NAME":"ONEWEB-0218","OBJECT_ID":"2021-031E","EPOCH":"2025-09-29T15:01:44.855040","MEAN_MOTION":13.14504961,"ECCENTRICITY":0.0001974,"INCLINATION":87.9075,"RA_OF_ASC_NODE":341.5713,"ARG_OF_PERICENTER":127.0892,"MEAN_ANOMALY":233.0418,"EPHEMERIS_TYPE":0,"CLASSIFICATION_TYPE":"U","NORAD_CAT_ID":48214,"ELEMENT_SET_NO":999,"REV_AT_EPOCH":21414,"BSTAR":0.00014942,"MEAN_MOTION_DOT":6.8e-7,"MEAN_MOTION_DDOT":0},{"OBJECT_NAME":"ONEWEB-0209","OBJECT_ID":"2021-031F","EPOCH":"2025-09-29T16:35:22.550208","MEAN_MOTION":13.14505846,"ECCENTRICITY":0.0002056,"INCLINATION":87.907,"RA_OF_ASC_NODE":341.6017,"ARG_OF_PERICENTER":100.229,"MEAN_ANOMALY":259.9071,"EPHEMERIS_TYPE":0,"CLASSIFICATION_TYPE":"U","NORAD_CAT_ID":48215,"ELEMENT_SET_NO":999,"REV_AT_EPOCH":21415,"BSTAR":-0.00047466,"MEAN_MOTION_DOT":-1.63e-6,"MEAN_MOTION_DDOT":0},{"OBJECT_NAME":"ONEWEB-0198","OBJECT_ID":"2021-031G","EPOCH":"2025-09-29T18:02:20.736960","MEAN_MOTION":13.1450239,"ECCENTRICITY":0.0002124,"INCLINATION":87.9066,"RA_OF_ASC_NODE":341.5882,"ARG_OF_PERICENTER":108.8029,"MEAN_ANOMALY":251.3331,"EPHEMERIS_TYPE":0,"CLASSIFICATION_TYPE":"U","NORAD_CAT_ID":48216,"ELEMENT_SET_NO":999,"REV_AT_EPOCH":21427,"BSTAR":-0.00034643,"MEAN_MOTION_DOT":-1.16e-6,"MEAN_MOTION_DDOT":0},{"OBJECT_NAME":"ONEWEB-0189","OBJECT_ID":"2021-031H","EPOCH":"2025-09-29T14:41:12.505056","MEAN_MOTION":13.14502172,"ECCENTRICITY":0.0002079,"INCLINATION":87.9065,"RA_OF_ASC_NODE":341.5894,"ARG_OF_PERICENTER":110.6878,"MEAN_ANOMALY":249.4475,"EPHEMERIS_TYPE":0,"CLASSIFICATION_TYPE":"U","NORAD_CAT_ID":48217,"ELEMENT_SET_NO":999,"REV_AT_EPOCH":21399,"BSTAR":-0.0005439,"MEAN_MOTION_DOT":-1.89e-6,"MEAN_MOTION_DDOT":0},{"OBJECT_NAME":"ONEWEB-0196","OBJECT_ID":"2021-031J","EPOCH":"2025-09-29T17:48:26.991648","MEAN_MOTION":13.14501531,"ECCENTRICITY":0.0001889,"INCLINATION":87.9069,"RA_OF_ASC_NODE":341.579,"ARG_OF_PERICENTER":97.8508,"MEAN_ANOMALY":262.2836,"EPHEMERIS_TYPE":0,"CLASSIFICATION_TYPE":"U","NORAD_CAT_ID":48218,"ELEMENT_SET_NO":999,"REV_AT_EPOCH":21401,"BSTAR":0.00062094,"MEAN_MOTION_DOT":2.43e-6,"MEAN_MOTION_DDOT":0}]
