ONEWEB-0171             
1 48070U 21025AE  25272.79560734  .00000190  00000+0  48656-3 0  9999
2 48070  87.9040  11.9836 0001704 102.7642 257.3678 13.13472115219436
ONEWEB-0172             
1 48071U 21025AF  25272.69912639 -.00000200  00000+0 -58295-3 0  9998
2 48071  87.9053  11.9726 0001809 106.7477 253.3850 13.13470242220311
ONEWEB-0174             
1 48072U 21025AG  25272.83285299 -.00000139  00000+0 -41672-3 0  9992
2 48072  87.9049  11.9573 0001900  96.9392 263.1953 13.13468446219656
ONEWEB-0175             
1 48073U 21025AH  25272.78713750 -.00000070  00000+0 -22572-3 0  9997
2 48073  87.9049  11.9313 0001532 110.5433 249.5860 13.13472565219303
ONEWEB-0177             
1 48074U 21025AJ  25272.79900213  .00000302  00000+0  79198-3 0  9993
2 48074  87.9054  11.9469 0001930 100.0816 260.0531 13.13469736219492
ONEWEB-0178             
1 48075U 21025AK  25272.81775661  .00000427  00000+0  11337-2 0  9992
2 48075  87.9054  11.9890 0001748 107.0920 253.0401 13.13468348219543
ONEWEB-0108             
1 48076U 21025AL  25272.77698434 -.00000416  00000+0 -11741-2 0  9999
2 48076  87.9050  11.9430 0001716  92.3345 267.7980 13.13469914219467
ONEWEB-0169             
1 48077U 21025AM  25272.80915816  .00000339  00000+0  89315-3 0  9995
2 48077  87.9051  11.9589 0001755  92.4969 267.6361 13.13469436218123
ONEWEB-0176             
1 48210U 21031A   25272.09499122  .00000197  00000+0  49789-3 0  9992
2 48210  87.9070 341.6968 0001745 101.7168 258.4158 13.14502390214015
ONEWEB-0184             
1 48211U 21031B   25272.75309023 -.00000057  00000+0 -18719-3 0  9992
2 48211  87.9077 341.5400 0001694 126.7851 233.3434 13.14503135214075
ONEWEB-0179             
1 48212U 21031C   25272.72373786  .00000304  00000+0  78496-3 0  9998
2 48212  87.9064 341.5603 0001892  95.9931 264.1414 13.14505176214115
ONEWEB-0180             
1 48213U 21031D   25272.68013088 -.00000178  00000+0 -51348-3 0  9998
2 48213  87.9077 341.5603 0002066 103.0674 257.0686 13.14501124213995
ONEWEB-0218             
1 48214U 21031E   25272.62621360  .00000068  00000+0  14942-3 0  9996
2 48214  87.9075 341.5713 0001974 127.0892 233.0418 13.14504961214148
ONEWEB-0209             
1 48215U 21031F   25272.69123322 -.00000163  00000+0 -47466-3 0  9994
2 48215  87.9070 341.6017 0002056 100.2290 259.9071 13.14505846214155
ONEWEB-0198             
1 48216U 21031G   25272.75162890 -.00000116  00000+0 -34643-3 0  9996
2 48216  87.9066 341.5882 0002124 108.8029 251.3331 13.14502390214279
ONEWEB-0189             
1 48217U 21031H   25272.61195029 -.00000189  00000+0 -54390-3 0  9993
2 48217  87.9065 341.5894 0002079 110.6878 249.4475 13.14502172213997
ONEWEB-0196             
1 48218U 21031J   25272.74197907  .00000243  00000+0  62094-3 0  9994
2 48218  87.9069 341.5790 0001889  97.8508 262.2836 13.14501531214017
